full_name,epoch_mjd,a,e,i,om,w,ma,per_y
   588 Achilles (1906 TG),57400,5.205918325,0.147042468,10.31518182,316.5629881,133.5794631,138.5970224,11.8782983
   617 Patroclus (1906 VY),57400,5.217631288,0.138728369,22.04761027,44.35882277,308.5017633,103.7387701,11.91840889
   624 Hektor (1907 XM),57400,5.252597071,0.024446974,18.16691047,342.7963428,183.575367,72.22810364,12.03841562